{
  "type": "FeatureCollection",
  "features": [
    {
      "type": "Feature",
      "properties": {
        "norad_id": 33913,
        "name": "COSMOS 2251 DEB",
        "group": "cosmos-2251-debris",
        "lat": 39.336953148458115,
        "lon": 169.82594033638392,
        "alt_km": 755.1062010746382,
        "timestamp": "2025-12-27T08:36:18.777641+00:00",
        "meta_object_name": "COSMOS 2251 DEB",
        "meta_object_id": "1993-036DS",
        "meta_epoch": "2025-12-26T21:30:57.165408",
        "meta_mean_motion": 14.48546591,
        "meta_eccentricity": 0.0048159,
        "meta_inclination": 74.0331,
        "meta_ra_of_asc_node": 157.1205,
        "meta_arg_of_pericenter": 257.0733,
        "meta_mean_anomaly": 255.4073,
        "meta_ephemeris_type": 0,
        "meta_classification_type": "U",
        "meta_norad_cat_id": 33913,
        "meta_element_set_no": 999,
        "meta_rev_at_epoch": 88662,
        "meta_bstar": 0.00077683,
        "meta_mean_motion_dot": 2.934e-05,
        "meta_mean_motion_ddot": 0,
        "tle_line1": "1 33913U 93036DS  25360.89649497  .00002934  00000+0  77683-3 0  9993",
        "tle_line2": "2 33913  74.0331 157.1205 0048159 257.0733 255.4073 14.48546591886627"
      },
      "geometry": {
        "type": "Point",
        "coordinates": [
          169.82594033638392,
          39.336953148458115
        ]
      }
    },
    {
      "type": "Feature",
      "properties": {
        "norad_id": 33914,
        "name": "COSMOS 2251 DEB",
        "group": "cosmos-2251-debris",
        "lat": -54.968608967833354,
        "lon": -33.00336754267301,
        "alt_km": 1186.9429901706153,
        "timestamp": "2025-12-27T08:36:18.777651+00:00",
        "meta_object_name": "COSMOS 2251 DEB",
        "meta_object_id": "1993-036DT",
        "meta_epoch": "2025-12-27T03:59:57.492096",
        "meta_mean_motion": 13.71993982,
        "meta_eccentricity": 0.0300773,
        "meta_inclination": 74.0912,
        "meta_ra_of_asc_node": 351.3186,
        "meta_arg_of_pericenter": 90.8668,
        "meta_mean_anomaly": 345.1098,
        "meta_ephemeris_type": 0,
        "meta_classification_type": "U",
        "meta_norad_cat_id": 33914,
        "meta_element_set_no": 999,
        "meta_rev_at_epoch": 84279,
        "meta_bstar": 0.00032758,
        "meta_mean_motion_dot": 3.91e-06,
        "meta_mean_motion_ddot": 0,
        "tle_line1": "1 33914U 93036DT  25361.16663764  .00000391  00000+0  32758-3 0  9997",
        "tle_line2": "2 33914  74.0912 351.3186 0300773  90.8668 345.1098 13.71993982842791"
      },
      "geometry": {
        "type": "Point",
        "coordinates": [
          -33.00336754267301,
          -54.968608967833354
        ]
      }
    },
    {
      "type": "Feature",
      "properties": {
        "norad_id": 33915,
        "name": "COSMOS 2251 DEB",
        "group": "cosmos-2251-debris",
        "lat": 34.01111643952286,
        "lon": 176.18235041789325,
        "alt_km": 722.3667413109133,
        "timestamp": "2025-12-27T08:36:18.777662+00:00",
        "meta_object_name": "COSMOS 2251 DEB",
        "meta_object_id": "1993-036DU",
        "meta_epoch": "2025-12-27T03:15:00.257760",
        "meta_mean_motion": 14.35114597,
        "meta_eccentricity": 0.0103962,
        "meta_inclination": 74.0429,
        "meta_ra_of_asc_node": 7.7232,
        "meta_arg_of_pericenter": 96.3694,
        "meta_mean_anomaly": 334.7546,
        "meta_ephemeris_type": 0,
        "meta_classification_type": "U",
        "meta_norad_cat_id": 33915,
        "meta_element_set_no": 999,
        "meta_rev_at_epoch": 87964,
        "meta_bstar": 0.00040465,
        "meta_mean_motion_dot": 1.202e-05,
        "meta_mean_motion_ddot": 0,
        "tle_line1": "1 33915U 93036DU  25361.13541965  .00001202  00000+0  40465-3 0  9999",
        "tle_line2": "2 33915  74.0429   7.7232 0103962  96.3694 334.7546 14.35114597879644"
      },
      "geometry": {
        "type": "Point",
        "coordinates": [
          176.18235041789325,
          34.01111643952286
        ]
      }
    },
    {
      "type": "Feature",
      "properties": {
        "norad_id": 33916,
        "name": "COSMOS 2251 DEB",
        "group": "cosmos-2251-debris",
        "lat": 29.35524476675493,
        "lon": 25.82261320272258,
        "alt_km": 1218.1433805239813,
        "timestamp": "2025-12-27T08:36:18.777672+00:00",
        "meta_object_name": "COSMOS 2251 DEB",
        "meta_object_id": "1993-036DV",
        "meta_epoch": "2025-12-27T03:31:44.274144",
        "meta_mean_motion": 13.68627986,
        "meta_eccentricity": 0.0324661,
        "meta_inclination": 74.0518,
        "meta_ra_of_asc_node": 16.9152,
        "meta_arg_of_pericenter": 185.9606,
        "meta_mean_anomaly": 244.6727,
        "meta_ephemeris_type": 0,
        "meta_classification_type": "U",
        "meta_norad_cat_id": 33916,
        "meta_element_set_no": 999,
        "meta_rev_at_epoch": 84088,
        "meta_bstar": 0.00033162,
        "meta_mean_motion_dot": 3.9e-06,
        "meta_mean_motion_ddot": 0,
        "tle_line1": "1 33916U 93036DV  25361.14704021  .00000390  00000+0  33162-3 0  9998",
        "tle_line2": "2 33916  74.0518  16.9152 0324661 185.9606 244.6727 13.68627986840886"
      },
      "geometry": {
        "type": "Point",
        "coordinates": [
          25.82261320272258,
          29.35524476675493
        ]
      }
    },
    {
      "type": "Feature",
      "properties": {
        "norad_id": 33917,
        "name": "COSMOS 2251 DEB",
        "group": "cosmos-2251-debris",
        "lat": 33.47757257634775,
        "lon": -92.43575647012494,
        "alt_km": 841.5216516084047,
        "timestamp": "2025-12-27T08:36:18.777682+00:00",
        "meta_object_name": "COSMOS 2251 DEB",
        "meta_object_id": "1993-036DW",
        "meta_epoch": "2025-12-26T09:05:15.069696",
        "meta_mean_motion": 13.69392685,
        "meta_eccentricity": 0.0331107,
        "meta_inclination": 74.1073,
        "meta_ra_of_asc_node": 100.0302,
        "meta_arg_of_pericenter": 198.0199,
        "meta_mean_anomaly": 160.8957,
        "meta_ephemeris_type": 0,
        "meta_classification_type": "U",
        "meta_norad_cat_id": 33917,
        "meta_element_set_no": 999,
        "meta_rev_at_epoch": 83920,
        "meta_bstar": 0.0012102,
        "meta_mean_motion_dot": 1.524e-05,
        "meta_mean_motion_ddot": 0,
        "tle_line1": "1 33917U 93036DW  25360.37864664  .00001524  00000+0  12102-2 0  9993",
        "tle_line2": "2 33917  74.1073 100.0302 0331107 198.0199 160.8957 13.69392685839205"
      },
      "geometry": {
        "type": "Point",
        "coordinates": [
          -92.43575647012494,
          33.47757257634775
        ]
      }
    },
    {
      "type": "Feature",
      "properties": {
        "norad_id": 33920,
        "name": "COSMOS 2251 DEB",
        "group": "cosmos-2251-debris",
        "lat": -47.310613215518025,
        "lon": 108.69291221455416,
        "alt_km": 685.6927443754121,
        "timestamp": "2025-12-27T08:36:18.777692+00:00",
        "meta_object_name": "COSMOS 2251 DEB",
        "meta_object_id": "1993-036DZ",
        "meta_epoch": "2025-12-27T04:15:33.346656",
        "meta_mean_motion": 14.58497819,
        "meta_eccentricity": 0.0037527,
        "meta_inclination": 74.0609,
        "meta_ra_of_asc_node": 270.9888,
        "meta_arg_of_pericenter": 275.3001,
        "meta_mean_anomaly": 84.3883,
        "meta_ephemeris_type": 0,
        "meta_classification_type": "U",
        "meta_norad_cat_id": 33920,
        "meta_element_set_no": 999,
        "meta_rev_at_epoch": 88325,
        "meta_bstar": 0.0018965,
        "meta_mean_motion_dot": 8.876e-05,
        "meta_mean_motion_ddot": 0,
        "tle_line1": "1 33920U 93036DZ  25361.17746929  .00008876  00000+0  18965-2 0  9999",
        "tle_line2": "2 33920  74.0609 270.9888 0037527 275.3001  84.3883 14.58497819883255"
      },
      "geometry": {
        "type": "Point",
        "coordinates": [
          108.69291221455416,
          -47.310613215518025
        ]
      }
    },
    {
      "type": "Feature",
      "properties": {
        "norad_id": 33922,
        "name": "COSMOS 2251 DEB",
        "group": "cosmos-2251-debris",
        "lat": -73.71153949448633,
        "lon": 18.566922735504203,
        "alt_km": 721.0083688975537,
        "timestamp": "2025-12-27T08:36:18.777702+00:00",
        "meta_object_name": "COSMOS 2251 DEB",
        "meta_object_id": "1993-036EB",
        "meta_epoch": "2025-12-26T10:09:19.550880",
        "meta_mean_motion": 14.49558695,
        "meta_eccentricity": 0.0023079,
        "meta_inclination": 74.0472,
        "meta_ra_of_asc_node": 122.1065,
        "meta_arg_of_pericenter": 231.2219,
        "meta_mean_anomaly": 195.9664,
        "meta_ephemeris_type": 0,
        "meta_classification_type": "U",
        "meta_norad_cat_id": 33922,
        "meta_element_set_no": 999,
        "meta_rev_at_epoch": 88776,
        "meta_bstar": 0.00055696,
        "meta_mean_motion_dot": 2.117e-05,
        "meta_mean_motion_ddot": 0,
        "tle_line1": "1 33922U 93036EB  25360.42314295  .00002117  00000+0  55696-3 0  9990",
        "tle_line2": "2 33922  74.0472 122.1065 0023079 231.2219 195.9664 14.49558695887765"
      },
      "geometry": {
        "type": "Point",
        "coordinates": [
          18.566922735504203,
          -73.71153949448633
        ]
      }
    }
  ]
}